[{"OBJECT_NAME":"YAOGAN-30 07A","OBJECT_ID":"2020-021A","EPOCH":"2026-03-09T13:20:42.408096","MEAN_MOTION":15.02093562,"ECCENTRICITY":0.0004392,"INCLINATION":34.9941,"RA_OF_ASC_NODE":97.9026,"ARG_OF_PERICENTER":231.7665,"MEAN_ANOMALY":128.2648,"EPHEMERIS_TYPE":0,"CLASSIFICATION_TYPE":"U","NORAD_CAT_ID":45460,"ELEMENT_SET_NO":999,"REV_AT_EPOCH":32556,"BSTAR":0.00035264,"MEAN_MOTION_DOT":4.701e-5,"MEAN_MOTION_DDOT":0},{"OBJECT_NAME":"CZ-6A DEB","OBJECT_ID":"2024-140VD","EPOCH":"2026-03-09T13:59:50.309088","MEAN_MOTION":14.67840458,"ECCENTRICITY":0.0170049,"INCLINATION":89.0158,"RA_OF_ASC_NODE":282.3552,"ARG_OF_PERICENTER":150.1699,"MEAN_ANOMALY":210.9347,"EPHEMERIS_TYPE":0,"CLASSIFICATION_TYPE":"U","NORAD_CAT_ID":61340,"ELEMENT_SET_NO":999,"REV_AT_EPOCH":8091,"BSTAR":0.00043795,"MEAN_MOTION_DOT":3.137e-5,"MEAN_MOTION_DDOT":0}]
